{
  "norad_id": 68123,
  "name": "STARLINK-36922",
  "history": [
    {
      "epoch": "2026-03-28T21:07:12.158112Z",
      "apogee_km": 344.77719713254555,
      "perigee_km": 343.34657876521305,
      "latitude_deg": 2.7889313525475486e-05,
      "longitude_deg": -94.08966764682258,
      "height_km": 347.08946543568607,
      "semi_major_axis_km": 6722.198887948879,
      "eccentricity": 0.00010641,
      "inclination_deg": 97.285,
      "raan_deg": 49.0051,
      "arg_perigee_deg": 78.7894,
      "mean_anomaly_deg": 281.3491,
      "mean_motion_rev_day": 15.75200081
    },
    {
      "epoch": "2026-03-29T03:13:06.899232Z",
      "apogee_km": 345.1483519157864,
      "perigee_km": 342.6934563691939,
      "latitude_deg": 3.798642712565587e-05,
      "longitude_deg": 174.44868498578725,
      "height_km": 347.5840593267316,
      "semi_major_axis_km": 6722.05790414249,
      "eccentricity": 0.0001826,
      "inclination_deg": 97.2849,
      "raan_deg": 49.272,
      "arg_perigee_deg": 113.9024,
      "mean_anomaly_deg": 246.2433,
      "mean_motion_rev_day": 15.75249637
    },
    {
      "epoch": "2026-03-30T03:37:11.800128Z",
      "apogee_km": 349.48880939443825,
      "perigee_km": 345.76273681813655,
      "latitude_deg": -6.880417794439614e-05,
      "longitude_deg": 168.49245047224858,
      "height_km": 352.6447939560294,
      "semi_major_axis_km": 6725.762773106287,
      "eccentricity": 0.000277,
      "inclination_deg": 97.2843,
      "raan_deg": 50.3383,
      "arg_perigee_deg": 186.3816,
      "mean_anomaly_deg": 173.7413,
      "mean_motion_rev_day": 15.73948233
    },
    {
      "epoch": "2026-03-30T05:08:48.310656Z",
      "apogee_km": 350.1417032824338,
      "perigee_km": 348.3689008629917,
      "latitude_deg": -7.919047110494832e-05,
      "longitude_deg": 145.59422086973345,
      "height_km": 352.06922566808987,
      "semi_major_axis_km": 6727.3923020727125,
      "eccentricity": 0.00013176,
      "inclination_deg": 97.2843,
      "raan_deg": 50.4049,
      "arg_perigee_deg": 66.744,
      "mean_anomaly_deg": 293.3962,
      "mean_motion_rev_day": 15.73376398
    },
    {
      "epoch": "2026-03-30T14:00:03.000384Z",
      "apogee_km": 356.03363645468653,
      "perigee_km": 353.6560858998673,
      "latitude_deg": -71.95962282775443,
      "longitude_deg": 35.77561424673158,
      "height_km": 382.67965092222255,
      "semi_major_axis_km": 6732.981861177276,
      "eccentricity": 0.00017656,
      "inclination_deg": 97.2843,
      "raan_deg": 50.79,
      "arg_perigee_deg": 108.6773,
      "mean_anomaly_deg": 178.0265,
      "mean_motion_rev_day": 15.71417536
    },
    {
      "epoch": "2026-03-30T22:00:00.999936Z",
      "apogee_km": 359.80586265343754,
      "perigee_km": 357.94321370336183,
      "latitude_deg": 9.969389643888624,
      "longitude_deg": -108.44815933858882,
      "height_km": 361.1607102465235,
      "semi_major_axis_km": 6737.011538178399,
      "eccentricity": 0.00013824,
      "inclination_deg": 97.2844,
      "raan_deg": 51.1378,
      "arg_perigee_deg": 92.2677,
      "mean_anomaly_deg": 277.859,
      "mean_motion_rev_day": 15.70007855
    },
    {
      "epoch": "2026-03-31T20:00:01.999008Z",
      "apogee_km": 371.23763756155677,
      "perigee_km": 368.8002036430353,
      "latitude_deg": 38.37919349113844,
      "longitude_deg": 108.65425078061801,
      "height_km": 374.7669294529609,
      "semi_major_axis_km": 6748.155920602296,
      "eccentricity": 0.0001806,
      "inclination_deg": 97.2853,
      "raan_deg": 52.0891,
      "arg_perigee_deg": 88.5798,
      "mean_anomaly_deg": 52.741,
      "mean_motion_rev_day": 15.66120228
    },
    {
      "epoch": "2026-04-01T20:00:01.999008Z",
      "apogee_km": 383.2659493831252,
      "perigee_km": 381.05398021624205,
      "latitude_deg": 7.88254064583109,
      "longitude_deg": -78.086025839148,
      "height_km": 384.3924468074458,
      "semi_major_axis_km": 6760.296964799683,
      "eccentricity": 0.0001636,
      "inclination_deg": 97.2852,
      "raan_deg": 53.1215,
      "arg_perigee_deg": 85.6646,
      "mean_anomaly_deg": 282.3741,
      "mean_motion_rev_day": 15.61903151
    },
    {
      "epoch": "2026-04-02T20:00:01.999008Z",
      "apogee_km": 395.6342046623313,
      "perigee_km": 393.0742029872863,
      "latitude_deg": -39.5424014659166,
      "longitude_deg": 96.93819384674495,
      "height_km": 410.3596051468423,
      "semi_major_axis_km": 6772.4912038248085,
      "eccentricity": 0.000189,
      "inclination_deg": 97.2852,
      "raan_deg": 54.1474,
      "arg_perigee_deg": 91.361,
      "mean_anomaly_deg": 128.2679,
      "mean_motion_rev_day": 15.57686613
    },
    {
      "epoch": "2026-04-02T22:00:01.999584Z",
      "apogee_km": 396.28734485071345,
      "perigee_km": 394.24015220847923,
      "latitude_deg": -33.421180878388036,
      "longitude_deg": -102.22140109205749,
      "height_km": 408.608171025309,
      "semi_major_axis_km": 6773.400748529596,
      "eccentricity": 0.00015112,
      "inclination_deg": 97.285,
      "raan_deg": 54.2332,
      "arg_perigee_deg": 93.8808,
      "mean_anomaly_deg": 232.682,
      "mean_motion_rev_day": 15.5737287
    }
  ]
}